CCSDS_OMM_VERS = 2.0
CREATION_DATE  = 
ORIGINATOR     = 

OBJECT_NAME    = BSAT-4B
OBJECT_ID      = 2020-056A
CENTER_NAME    = EARTH
REF_FRAME      = TEME
TIME_SYSTEM    = UTC
MEAN_ELEMENT_THEORY = SGP/SGP4

EPOCH          = 2020-09-08T11:38:58.494336
MEAN_MOTION    = 1.00338020
ECCENTRICITY   = .0004303
INCLINATION    = 0.0440
RA_OF_ASC_NODE = 306.1230
ARG_OF_PERICENTER = 9.7562
MEAN_ANOMALY   = 312.2846

EPHEMERIS_TYPE = 0
CLASSIFICATION_TYPE = U
NORAD_CAT_ID   = 46112
ELEMENT_SET_NO = 999
REV_AT_EPOCH   = 26
BSTAR          = .00000E-0
MEAN_MOTION_DOT = -3.43E-6
MEAN_MOTION_DDOT = 0

CCSDS_OMM_VERS = 2.0
CREATION_DATE  = 
ORIGINATOR     = 

OBJECT_NAME    = MEV-2
OBJECT_ID      = 2020-056B
CENTER_NAME    = EARTH
REF_FRAME      = TEME
TIME_SYSTEM    = UTC
MEAN_ELEMENT_THEORY = SGP/SGP4

EPOCH          = 2020-09-06T01:03:33.024672
MEAN_MOTION    = 1.89665302
ECCENTRICITY   = .5679467
INCLINATION    = 3.6163
RA_OF_ASC_NODE = 121.2949
ARG_OF_PERICENTER = 184.8189
MEAN_ANOMALY   = 113.1302

EPHEMERIS_TYPE = 0
CLASSIFICATION_TYPE = U
NORAD_CAT_ID   = 46113
ELEMENT_SET_NO = 999
REV_AT_EPOCH   = 42
BSTAR          = .00000E+0
MEAN_MOTION_DOT = -8.5E-7
MEAN_MOTION_DDOT = 0

CCSDS_OMM_VERS = 2.0
CREATION_DATE  = 
ORIGINATOR     = 

OBJECT_NAME    = GALAXY 30
OBJECT_ID      = 2020-056C
CENTER_NAME    = EARTH
REF_FRAME      = TEME
TIME_SYSTEM    = UTC
MEAN_ELEMENT_THEORY = SGP/SGP4

EPOCH          = 2020-09-09T01:20:01.536576
MEAN_MOTION    = 1.00272981
ECCENTRICITY   = .0000519
INCLINATION    = 0.0163
RA_OF_ASC_NODE = 355.8041
ARG_OF_PERICENTER = 224.9825
MEAN_ANOMALY   = 232.3236

EPHEMERIS_TYPE = 0
CLASSIFICATION_TYPE = U
NORAD_CAT_ID   = 46114
ELEMENT_SET_NO = 999
REV_AT_EPOCH   = 29
BSTAR          = .00000E-0
MEAN_MOTION_DOT = -1.82E-6
MEAN_MOTION_DDOT = 0

CCSDS_OMM_VERS = 2.0
CREATION_DATE  = 
ORIGINATOR     = 

OBJECT_NAME    = ARIANE 5 DEB [SYLDA]
OBJECT_ID      = 2020-056D
CENTER_NAME    = EARTH
REF_FRAME      = TEME
TIME_SYSTEM    = UTC
MEAN_ELEMENT_THEORY = SGP/SGP4

EPOCH          = 2020-09-08T17:31:51.330144
MEAN_MOTION    = 2.28328403
ECCENTRICITY   = .7267677
INCLINATION    = 6.0478
RA_OF_ASC_NODE = 114.9450
ARG_OF_PERICENTER = 197.4140
MEAN_ANOMALY   = 110.3780

EPHEMERIS_TYPE = 0
CLASSIFICATION_TYPE = U
NORAD_CAT_ID   = 46115
ELEMENT_SET_NO = 999
REV_AT_EPOCH   = 54
BSTAR          = .20646E-2
MEAN_MOTION_DOT = 3.997E-5
MEAN_MOTION_DDOT = 0

CCSDS_OMM_VERS = 2.0
CREATION_DATE  = 
ORIGINATOR     = 

OBJECT_NAME    = ARIANE 5 R/B
OBJECT_ID      = 2020-056E
CENTER_NAME    = EARTH
REF_FRAME      = TEME
TIME_SYSTEM    = UTC
MEAN_ELEMENT_THEORY = SGP/SGP4

EPOCH          = 2020-09-08T16:39:29.269728
MEAN_MOTION    = 2.28681443
ECCENTRICITY   = .7268417
INCLINATION    = 5.8145
RA_OF_ASC_NODE = 117.4740
ARG_OF_PERICENTER = 194.8132
MEAN_ANOMALY   = 119.6073

EPHEMERIS_TYPE = 0
CLASSIFICATION_TYPE = U
NORAD_CAT_ID   = 46116
ELEMENT_SET_NO = 999
REV_AT_EPOCH   = 55
BSTAR          = .18735E-3
MEAN_MOTION_DOT = 1.62E-6
MEAN_MOTION_DDOT = 0

CCSDS_OMM_VERS = 2.0
CREATION_DATE  = 
ORIGINATOR     = 

OBJECT_NAME    = STARLINK-1585
OBJECT_ID      = 2020-057A
CENTER_NAME    = EARTH
REF_FRAME      = TEME
TIME_SYSTEM    = UTC
MEAN_ELEMENT_THEORY = SGP/SGP4

EPOCH          = 2020-09-09T06:00:00.999648
MEAN_MOTION    = 15.66239062
ECCENTRICITY   = .0008205
INCLINATION    = 52.9981
RA_OF_ASC_NODE = 333.6315
ARG_OF_PERICENTER = 284.8299
MEAN_ANOMALY   = 16.6846

EPHEMERIS_TYPE = 0
CLASSIFICATION_TYPE = U
NORAD_CAT_ID   = 46117
ELEMENT_SET_NO = 999
REV_AT_EPOCH   = 182
BSTAR          = .23179E-3
MEAN_MOTION_DOT = 2.3914E-4
MEAN_MOTION_DDOT = 0

CCSDS_OMM_VERS = 2.0
CREATION_DATE  = 
ORIGINATOR     = 

OBJECT_NAME    = STARLINK-1588
OBJECT_ID      = 2020-057B
CENTER_NAME    = EARTH
REF_FRAME      = TEME
TIME_SYSTEM    = UTC
MEAN_ELEMENT_THEORY = SGP/SGP4

EPOCH          = 2020-09-09T06:00:00.999648
MEAN_MOTION    = 15.62776177
ECCENTRICITY   = .0001099
INCLINATION    = 53.0002
RA_OF_ASC_NODE = 333.9901
ARG_OF_PERICENTER = 57.3443
MEAN_ANOMALY   = 75.4526

EPHEMERIS_TYPE = 0
CLASSIFICATION_TYPE = U
NORAD_CAT_ID   = 46118
ELEMENT_SET_NO = 999
REV_AT_EPOCH   = 177
BSTAR          = .28066E-3
MEAN_MOTION_DOT = 2.5267E-4
MEAN_MOTION_DDOT = 0

CCSDS_OMM_VERS = 2.0
CREATION_DATE  = 
ORIGINATOR     = 

OBJECT_NAME    = STARLINK-1593
OBJECT_ID      = 2020-057C
CENTER_NAME    = EARTH
REF_FRAME      = TEME
TIME_SYSTEM    = UTC
MEAN_ELEMENT_THEORY = SGP/SGP4

EPOCH          = 2020-09-09T12:00:00.999648
MEAN_MOTION    = 15.62826344
ECCENTRICITY   = .0001315
INCLINATION    = 52.9998
RA_OF_ASC_NODE = 332.7577
ARG_OF_PERICENTER = 51.5635
MEAN_ANOMALY   = 52.3699

EPHEMERIS_TYPE = 0
CLASSIFICATION_TYPE = U
NORAD_CAT_ID   = 46119
ELEMENT_SET_NO = 999
REV_AT_EPOCH   = 412
BSTAR          = -.11590E-2
MEAN_MOTION_DOT = -1.05592E-3
MEAN_MOTION_DDOT = 0

CCSDS_OMM_VERS = 2.0
CREATION_DATE  = 
ORIGINATOR     = 

OBJECT_NAME    = STARLINK-1601
OBJECT_ID      = 2020-057D
CENTER_NAME    = EARTH
REF_FRAME      = TEME
TIME_SYSTEM    = UTC
MEAN_ELEMENT_THEORY = SGP/SGP4

EPOCH          = 2020-09-09T12:00:00.999648
MEAN_MOTION    = 15.62788903
ECCENTRICITY   = .0001494
INCLINATION    = 52.9994
RA_OF_ASC_NODE = 332.7468
ARG_OF_PERICENTER = 60.0576
MEAN_ANOMALY   = 50.2930

EPHEMERIS_TYPE = 0
CLASSIFICATION_TYPE = U
NORAD_CAT_ID   = 46120
ELEMENT_SET_NO = 999
REV_AT_EPOCH   = 412
BSTAR          = -.89761E-3
MEAN_MOTION_DOT = -8.2015E-4
MEAN_MOTION_DDOT = 0

CCSDS_OMM_VERS = 2.0
CREATION_DATE  = 
ORIGINATOR     = 

OBJECT_NAME    = STARLINK-1602
OBJECT_ID      = 2020-057E
CENTER_NAME    = EARTH
REF_FRAME      = TEME
TIME_SYSTEM    = UTC
MEAN_ELEMENT_THEORY = SGP/SGP4

EPOCH          = 2020-09-09T12:00:00.999648
MEAN_MOTION    = 15.66238051
ECCENTRICITY   = .0001183
INCLINATION    = 52.9983
RA_OF_ASC_NODE = 332.4109
ARG_OF_PERICENTER = 51.3929
MEAN_ANOMALY   = 222.4922

EPHEMERIS_TYPE = 0
CLASSIFICATION_TYPE = U
NORAD_CAT_ID   = 46121
ELEMENT_SET_NO = 999
REV_AT_EPOCH   = 412
BSTAR          = -.26401E-4
MEAN_MOTION_DOT = -3.335E-5
MEAN_MOTION_DDOT = 0

CCSDS_OMM_VERS = 2.0
CREATION_DATE  = 
ORIGINATOR     = 

OBJECT_NAME    = STARLINK-1604
OBJECT_ID      = 2020-057F
CENTER_NAME    = EARTH
REF_FRAME      = TEME
TIME_SYSTEM    = UTC
MEAN_ELEMENT_THEORY = SGP/SGP4

EPOCH          = 2020-09-09T12:00:00.999648
MEAN_MOTION    = 15.62720674
ECCENTRICITY   = .0004136
INCLINATION    = 53.0001
RA_OF_ASC_NODE = 332.7406
ARG_OF_PERICENTER = 289.7546
MEAN_ANOMALY   = 183.9161

EPHEMERIS_TYPE = 0
CLASSIFICATION_TYPE = U
NORAD_CAT_ID   = 46122
ELEMENT_SET_NO = 999
REV_AT_EPOCH   = 412
BSTAR          = -.40913E-5
MEAN_MOTION_DOT = -9.12E-6
MEAN_MOTION_DDOT = 0

CCSDS_OMM_VERS = 2.0
CREATION_DATE  = 
ORIGINATOR     = 

OBJECT_NAME    = STARLINK-1605
OBJECT_ID      = 2020-057G
CENTER_NAME    = EARTH
REF_FRAME      = TEME
TIME_SYSTEM    = UTC
MEAN_ELEMENT_THEORY = SGP/SGP4

EPOCH          = 2020-09-09T06:00:00.999648
MEAN_MOTION    = 15.62804366
ECCENTRICITY   = .0007584
INCLINATION    = 53.0005
RA_OF_ASC_NODE = 333.9521
ARG_OF_PERICENTER = 273.5870
MEAN_ANOMALY   = 237.7477

EPHEMERIS_TYPE = 0
CLASSIFICATION_TYPE = U
NORAD_CAT_ID   = 46123
ELEMENT_SET_NO = 999
REV_AT_EPOCH   = 177
BSTAR          = -.90449E-3
MEAN_MOTION_DOT = -8.2821E-4
MEAN_MOTION_DDOT = 0

